     2.100          NAVIGATION                              RINEX VERSION / TYPE
fic2rin                                 02/15/2015 00:18:56 PGM / RUN BY / DATE
                                                            END OF HEADER
 3 15  2 14 18  0  0.0  .209043268114D-03  .206910044653D-10  .000000000000D+00
     .820000000000D+02 -.156250000000D+00  .505485341208D-08 -.296228468202D+01
    -.186264514923D-08  .937723554671D-03  .650249421597D-05  .515373868561D+04
     .583200000000D+06  .149011611938D-07  .989934800929D+00 -.204890966415D-07
     .959291035442D+00  .256750000000D+03 -.297773262880D+01 -.819284126472D-08
     .207151485834D-10  .100000000000D+01  .183100000000D+04  .000000000000D+00
     .340000000000D+01  .000000000000D+00  .139698386192D-08  .820000000000D+02
     .576006000000D+06  .400000000000D+01
 5 15  2 14 18  0  0.0 -.279110856354D-03  .511590769747D-11  .000000000000D+00
     .950000000000D+02 -.203125000000D+01  .533093634061D-08 -.235280276290D+01
    -.299885869026D-06  .404595502187D-02  .628642737865D-05  .515376535225D+04
     .583200000000D+06  .372529029846D-07  .984236815471D+00 -.154599547386D-06
     .946566790501D+00  .251781250000D+03  .420434993216D+00 -.840249285470D-08
     .246438836595D-10  .100000000000D+01  .183100000000D+04  .000000000000D+00
     .240000000000D+01  .000000000000D+00 -.107102096081D-07  .950000000000D+02
     .576006000000D+06  .400000000000D+01
 6 15  2 14 18  0  0.0  .818828120828D-04  .112549969344D-10  .000000000000D+00
     .350000000000D+02 -.127187500000D+02  .436911056242D-08 -.275313360880D+01
    -.514090061188D-06  .363894389011D-03  .968389213085D-05  .515369971466D+04
     .583200000000D+06 -.111758708954D-07 -.587725816911D-01 -.670552253723D-07
     .962153923699D+00  .191062500000D+03  .264747596266D+01 -.789782897628D-08
     .519307345521D-09  .100000000000D+01  .183100000000D+04  .000000000000D+00
     .240000000000D+01  .000000000000D+00  .465661287308D-08  .350000000000D+02
     .576006000000D+06  .400000000000D+01
 8 15  2 14 18  0  0.0  .176806934178D-04  .227373675443D-12  .000000000000D+00
     .210000000000D+02  .109968750000D+03  .374908473586D-08  .195492127343D+01
     .561773777008D-05  .144071603427D-01  .718235969543D-05  .515356177330D+04
     .583200000000D+06 -.298023223877D-06 -.306824662536D+01  .949949026108D-07
     .995129838078D+00  .262062500000D+03 -.269178774543D+01 -.785568436364D-08
     .332156692802D-10  .100000000000D+01  .183100000000D+04  .000000000000D+00
     .340000000000D+01  .630000000000D+02 -.512227416039D-08  .210000000000D+02
     .576006000000D+06  .400000000000D+01
 9 15  2 14 18  0  0.0 -.868355855346D-04 -.114823706099D-10  .000000000000D+00
     .980000000000D+02  .114375000000D+02  .465162233017D-08  .282628943135D+01
     .739470124245D-06  .347901484929D-03  .104866921902D-04  .515365567398D+04
     .583200000000D+06 -.111758708954D-07  .203440266012D+01 -.558793544769D-08
     .957945735976D+00  .177312500000D+03  .220332946072D+01 -.802604860285D-08
    -.436803908922D-09  .100000000000D+01  .183100000000D+04  .000000000000D+00
     .240000000000D+01  .000000000000D+00  .465661287308D-09  .980000000000D+02
     .576006000000D+06  .400000000000D+01
10 15  2 14 18  0  0.0 -.163329299539D-03 -.170530256582D-11  .000000000000D+00
     .490000000000D+02 -.337500000000D+01  .537950979246D-08 -.199562606344D+01
    -.320374965668D-06  .145630798070D-01  .557675957680D-05  .515365457726D+04
     .583200000000D+06  .199303030968D-06  .999929790792D+00 -.651925802231D-07
     .941348074560D+00  .256437500000D+03  .921593323284D+00 -.828748806429D-08
     .168578450541D-09  .100000000000D+01  .183100000000D+04  .000000000000D+00
     .340000000000D+01  .000000000000D+00 -.325962901115D-08  .490000000000D+02
     .576006000000D+06  .400000000000D+01
11 15  2 14 18  0  0.0 -.557869207114D-03 -.261479726760D-11  .000000000000D+00
     .470000000000D+02 -.416875000000D+02  .605632369876D-08  .491272267622D+00
    -.220537185669D-05  .155979214469D-01  .101905316114D-04  .515372966385D+04
     .583200000000D+06 -.171363353729D-06 -.393403151986D+00  .372529029846D-08
     .892695111649D+00  .149687500000D+03  .138214714052D+01 -.899751763987D-08
     .333942481473D-09  .100000000000D+01  .183100000000D+04  .000000000000D+00
     .240000000000D+01  .000000000000D+00 -.121071934700D-07  .470000000000D+02
     .576006000000D+06  .400000000000D+01
12 15  2 14 18  0  0.0  .269343145192D-03  .295585778076D-11  .000000000000D+00
     .990000000000D+02 -.192187500000D+02  .411660004434D-08 -.411746573526D-01
    -.103935599327D-05  .527902774047D-02  .285916030407D-05  .515373442841D+04
     .583200000000D+06  .409781932831D-07 -.210672456524D+01  .428408384323D-07
     .989151825230D+00  .337281250000D+03  .512898426130D+00 -.819605568433D-08
    -.111433213069D-09  .100000000000D+01  .183100000000D+04  .000000000000D+00
     .340000000000D+01  .000000000000D+00 -.125728547573D-07  .990000000000D+02
     .576006000000D+06  .400000000000D+01
13 15  2 14 18  0  0.0 -.882083550096D-04 -.352429196937D-11  .000000000000D+00
     .100000000000D+03  .275937500000D+02  .421160400164D-08  .117240964928D+01
     .137276947498D-05  .533577764872D-02  .100824981928D-04  .515369001579D+04
     .583200000000D+06  .428408384323D-07  .214795943630D+01 -.931322574615D-07
     .974794084498D+00  .192500000000D+03  .206197477455D+01 -.779925344164D-08
    -.368229623956D-09  .100000000000D+01  .183100000000D+04  .000000000000D+00
     .240000000000D+01  .000000000000D+00 -.116415321827D-07  .100000000000D+03
     .576006000000D+06  .400000000000D+01
14 15  2 14 18  0  0.0  .874344259501D-04 -.352429196937D-11  .000000000000D+00
     .480000000000D+02  .385312500000D+02  .427339228966D-08  .300259095266D+01
     .200048089027D-05  .774155475665D-02  .105705112219D-04  .515378887749D+04
     .583200000000D+06  .800937414169D-07  .211404047519D+01 -.160187482834D-06
     .967273265077D+00  .175343750000D+03 -.197027164211D+01 -.770353516888D-08
    -.455018953366D-09  .100000000000D+01  .183100000000D+04  .000000000000D+00
     .240000000000D+01  .000000000000D+00 -.931322574615D-08  .480000000000D+02
     .576006000000D+06  .400000000000D+01
15 15  2 14 18  0  0.0 -.232272315770D-03 -.227373675443D-11  .000000000000D+00
     .320000000000D+02  .100000000000D+02  .519628787482D-08  .236803341222D+01
     .519677996635D-06  .709372607525D-02  .965222716331D-05  .515359566498D+04
     .583200000000D+06 -.143423676491D-06  .199327247255D+01  .000000000000D+00
     .933846684154D+00  .181656250000D+03  .374062669852D+00 -.820141305034D-08
    -.417874549009D-09  .100000000000D+01  .183100000000D+04  .000000000000D+00
     .240000000000D+01  .000000000000D+00 -.107102096081D-07  .320000000000D+02
     .576006000000D+06  .400000000000D+01
16 15  2 14 18  0  0.0 -.156334135681D-03  .329691829393D-11  .000000000000D+00
     .390000000000D+02 -.296875000000D+02  .405802617594D-08 -.217262774758D+01
    -.153668224812D-05  .806324707810D-02  .280700623989D-05  .515374531937D+04
     .583200000000D+06 -.316649675369D-07 -.208807376998D+01 -.316649675369D-07
     .989700827663D+00  .343343750000D+03  .239646852836D+00 -.810105172704D-08
    -.189293599124D-10  .100000000000D+01  .183100000000D+04  .000000000000D+00
     .240000000000D+01  .000000000000D+00 -.102445483208D-07  .390000000000D+02
     .576006000000D+06  .400000000000D+01
18 15  2 14 18  0  0.0  .379565637559D-03  .272848410532D-11  .000000000000D+00
     .105000000000D+03  .562500000000D+00  .572738142557D-08 -.160913177907D+01
     .240281224251D-06  .157026953530D-01  .575184822083D-05  .515375038147D+04
     .583200000000D+06  .322237610817D-06  .973271843627D+00  .169500708580D-06
     .925146445549D+00  .244437500000D+03 -.199007320238D+01 -.845106630655D-08
     .396445084958D-10  .100000000000D+01  .183100000000D+04  .000000000000D+00
     .240000000000D+01  .000000000000D+00 -.111758708954D-07  .105000000000D+03
     .576006000000D+06  .400000000000D+01
19 15  2 14 18  0  0.0 -.500545836985D-03 -.136424205266D-11  .000000000000D+00
     .800000000000D+02 -.112093750000D+03  .405374028313D-08  .237769609439D+01
    -.571273267269D-05  .109343809308D-01  .921636819839D-05  .515370517731D+04
     .583200000000D+06 -.189989805222D-06 -.100959232082D+01 -.949949026108D-07
     .968364422025D+00  .207156250000D+03  .518279486478D+00 -.786354183380D-08
     .460733477113D-10  .100000000000D+01  .183100000000D+04  .000000000000D+00
     .240000000000D+01  .000000000000D+00 -.149011611938D-07  .800000000000D+02
     .576006000000D+06  .400000000000D+01
20 15  2 14 18  0  0.0  .289712566882D-03  .409272615798D-11  .000000000000D+00
     .380000000000D+02  .337500000000D+01  .574273920814D-08 -.185168563739D+01
     .201165676117D-06  .582552852575D-02  .569783151150D-05  .515576086807D+04
     .583200000000D+06  .100582838058D-06  .920571363824D+00  .335276126862D-07
     .926352157760D+00  .248937500000D+03  .123508220819D+01 -.855428489173D-08
     .121076471892D-09  .100000000000D+01  .183100000000D+04  .000000000000D+00
     .240000000000D+01  .000000000000D+00 -.838190317154D-08  .380000000000D+02
     .576006000000D+06  .400000000000D+01
21 15  2 14 18  0  0.0 -.416634138674D-03 -.409272615798D-11  .000000000000D+00
     .120000000000D+02  .415625000000D+01  .529986361774D-08 -.591191286976D+00
     .460073351860D-06  .222114218632D-01  .946037471294D-05  .515361028290D+04
     .583200000000D+06 -.147148966789D-06 -.702078378097D-01  .346451997757D-06
     .933878777651D+00  .189500000000D+03 -.194797743182D+01 -.872857786602D-08
     .578595529398D-09  .100000000000D+01  .183100000000D+04  .000000000000D+00
     .240000000000D+01  .000000000000D+00 -.116415321827D-07  .120000000000D+02
     .576006000000D+06  .400000000000D+01
